STARLINK-3980           
1 52611C 22052P   26117.53937500 -.00027808  00000+0 -17443-2 0  1174
2 52611  53.2152  64.8234 0001606  88.8065 135.0968 15.08842026    19
STARLINK-4002           
1 52612C 22052Q   26117.51576389 -.00033633  00000+0 -21096-2 0  1179
2 52612  53.2167  59.9306 0001575  85.0414 218.0329 15.08845337    14
STARLINK-3982           
1 52614C 22052S   26117.50326389  .00078788  00000+0  13327-2 0  1179
2 52614  53.2099 356.8468 0004923 107.9562 343.8153 15.50922943    14
STARLINK-4011           
1 52615C 22052T   26117.51923611 -.00028673  00000+0 -17985-2 0  1176
2 52615  53.2153  64.9158 0001263  91.3333  43.1096 15.08842202    13
STARLINK-3996           
1 52617C 22052V   26117.56298611  .00003870  00000+0  24253-3 0  1175
2 52617  53.2172  49.7188 0001389  98.6461 256.1134 15.08858200    15
STARLINK-3983           
1 52618C 22052W   26117.55187500 -.00003923  00000+0 -24603-3 0  1179
2 52618  53.2174  49.7676 0001409  94.0989 180.2279 15.08834324    16
STARLINK-3741           
1 52619C 22052X   26117.51298611 -.00019729  00000+0 -12374-2 0  1174
2 52619  53.2172  49.9332 0001563  90.5230  12.4580 15.08840695    16
STARLINK-3975           
1 52620C 22052Y   26117.52965278 -.00029543  00000+0 -18530-2 0  1172
2 52620  53.2153  64.8677 0001349  92.4963 118.5655 15.08844102    19
STARLINK-3984           
1 52621C 22052Z   26117.54006944 -.00010298  00000+0 -64541-3 0  1172
2 52621  53.2168  49.8209 0002100  91.8232 198.2548 15.08862381    13
STARLINK-4008           
1 52622C 22052AA  26117.50812500 -.00032397  00000+0 -20318-2 0  1179
2 52622  53.2158  64.9647 0001942  81.2971 212.7576 15.08848837    16
STARLINK-3986           
1 52623C 22052AB  26117.52687500 -.00019321  00000+0 -12109-2 0  1173
2 52623  53.2165  49.8798 0001487  90.9938 147.5339 15.08868148    17
STARLINK-3988           
1 52625C 22052AD  26117.56576389  .00007339  00000+0  46032-3 0  1178
2 52625  53.2164  49.7049 0001510  90.9075  18.9205 15.08824487    16
STARLINK-3990           
1 52626C 22052AE  26117.51715278 -.00005683  00000+0 -35624-3 0  1173
2 52626  53.2169  49.9242 0001220  85.2505  60.3768 15.08856125    11
STARLINK-3992           
1 52627C 22052AF  26117.52340278 -.00018703  00000+0 -11733-2 0  1170
2 52627  53.2157  49.8951 0001501  84.2824 215.3038 15.08831046    17
STARLINK-4001           
1 52628C 22052AG  26117.50743056 -.00033819  00000+0 -21199-2 0  1172
2 52628  53.2158  64.9677 0001386  79.4711 230.7330 15.08868103    14
STARLINK-4022           
1 52629C 22052AH  26117.53243056 -.00011873  00000+0 -74471-3 0  1179
2 52629  53.2156  49.8162 0001517  88.4654 300.2184 15.08833643    17
STARLINK-3989           
1 52630C 22052AJ  26117.47965278 -.00028525  00000+0 -17891-2 0  1175
2 52630  53.2160  50.0932 0001561  86.5104 295.3014 15.08846476    15
STARLINK-3794           
1 52631C 22052AK  26117.50256944 -.00025413  00000+0 -15942-2 0  1171
2 52631  53.2155  49.9984 0001321  85.3202 135.8578 15.08837145    10
STARLINK-3995           
1 52632C 22052AL  26117.54493056 -.00005404  00000+0 -33885-3 0  1178
2 52632  53.2160  49.7980 0001678  90.2516 306.2826 15.08844237    19
STARLINK-3994           
1 52633C 22052AM  26117.51854167 -.00019090  00000+0 -11975-2 0  1171
2 52633  53.2160  49.9181 0001365  89.2768 283.8892 15.08835102    19
STARLINK-3974           
1 52634C 22052AN  26117.54770833 -.00091858  00000+0 -57613-2 0  1173
2 52634  53.2156  49.8140 0001529  84.4696   7.3147 15.08877312    19
STARLINK-3978           
1 52635C 22052AP  26117.51576389 -.00004395  00000+0 -27565-3 0  1175
2 52635  53.2159  39.9300 0001322  85.5709   7.5045 15.08830115    18
STARLINK-3967           
1 52636C 22052AQ  26117.51854167 -.00020013  00000+0 -12558-2 0  1179
2 52636  53.2159  49.9193 0001393  90.7781 242.4234 15.08824252    11
STARLINK-3961           
1 52637C 22052AR  26117.51298611 -.00005970  00000+0 -37449-3 0  1178
2 52637  53.2162  39.9428 0001467  93.9365   4.0429 15.08831673    14
STARLINK-3941           
1 52638C 22052AS  26117.54423611 -.00005636  00000+0 -35350-3 0  1170
2 52638  53.2158  49.8025 0001535  85.8080  47.0105 15.08832800    14
STARLINK-3968           
1 52639C 22052AT  26117.51993056 -.00003966  00000+0 -24881-3 0  1174
2 52639  53.2170  39.9121 0001371  88.8768 106.8629 15.08825211    13
STARLINK-3977           
1 52640C 22052AU  26117.56020833  .00020419  00000+0  12807-2 0  1179
2 52640  53.2158  39.7589 0001482  97.9092 216.5692 15.08821182    13
STARLINK-3991           
1 52641C 22052AV  26117.55048611  .00012451  00000+0  78094-3 0  1171
2 52641  53.2160  39.9768 0001320  87.6441 188.7905 15.08824884    12
STARLINK-3971           
1 52642C 22052AW  26117.53729167  .00005097  00000+0  31974-3 0  1176
2 52642  53.2166  39.8339 0001335  89.8102 160.2675 15.08821622    12
STARLINK-3963           
1 52643C 22052AX  26117.55048611  .00015112  00000+0  94804-3 0  1177
2 52643  53.2176  39.7450 0001507  94.7714   1.8484 15.08816340    11
STARLINK-3985           
1 52644C 22052AY  26117.50743056 -.00008793  00000+0 -55162-3 0  1171
2 52644  53.2168  39.9684 0001340 101.6426   6.0927 15.08828695    12
STARLINK-3973           
1 52645C 22052AZ  26117.48868056 -.00018086  00000+0 -11345-2 0  1177
2 52645  53.2175  40.1585 0001301  90.2188 335.5876 15.08835419    15
STARLINK-3832           
1 52646C 22052BA  26117.53520833  .00003098  00000+0  19433-3 0  1174
2 52646  53.2175  39.8830 0001566  91.8032 206.9144 15.08824589    17
STARLINK-3854           
1 52648C 22052BC  26117.56368056  .00021692  00000+0  13608-2 0  1173
2 52648  53.2178  39.7139 0001398  91.3261  42.1777 15.08814902    15
STARLINK-3868           
1 52649C 22052BD  26117.52826389  .00002588  00000+0  16231-3 0  1177
2 52649  53.2162  39.7261 0001403  93.2230 347.8996 15.08823788    19
STARLINK-3891           
1 52650C 22052BE  26117.56715278  .00037729  00000+0  23665-2 0  1170
2 52650  53.2166  29.8075 0001467  89.9836  17.2926 15.08810728    13
STARLINK-4004           
1 52656C 22053A   26117.56368056 -.00009780  00000+0 -61310-3 0  1173
2 52656  53.2160 294.7244 0001083  97.7927 187.9882 15.08854766    12
STARLINK-4084           
1 52657C 22053B   26117.50881944  .00010284  00000+0  64478-3 0  1171
2 52657  53.2150 295.2814 0001376  97.0331  50.3748 15.08838962    12
STARLINK-4082           
1 52658C 22053C   26117.52687500  .00006930  00000+0  43450-3 0  1176
2 52658  53.2161 294.8820 0001298  97.3920 333.5560 15.08837897    11
STARLINK-3960           
1 52659C 22053D   26117.52826389  .00006182  00000+0  38764-3 0  1178
2 52659  53.2159 294.8239 0001352  90.7975   7.7393 15.08833998    13
STARLINK-4081           
1 52660C 22053E   26117.51784722  .00011608  00000+0  72701-3 0  1171
2 52660  53.2159 294.9211 0001520  98.0180 323.8758 15.08876552    12
STARLINK-4044           
1 52662C 22053G   26117.53798611  .00000254  00000+0  15953-4 0  1179
2 52662  53.2155 294.8330 0001411  92.7774 138.5575 15.08843039    12
STARLINK-4037           
1 52663C 22053H   26117.53451389  .00001214  00000+0  76127-4 0  1175
2 52663  53.2153 294.8514 0001761  97.1646 135.2871 15.08846948    15
STARLINK-4070           
1 52664C 22053J   26117.55465278 -.00006198  00000+0 -38853-3 0  1171
2 52664  53.2156 294.7571 0001388  95.0196 206.8988 15.08851271    12
STARLINK-4064           
1 52665C 22053K   26117.53798611 -.00000594  00000+0 -37248-4 0  1172
2 52665  53.2149 294.8321 0001496  95.8962 215.4349 15.08842080    13
STARLINK-4079           
1 52666C 22053L   26117.56020833 -.00009177  00000+0 -57529-3 0  1179
2 52666  53.2162 294.3461 0001443  96.3983 135.9732 15.08852597    16
STARLINK-4076           
1 52667C 22053M   26117.54006944 -.00002888  00000+0 -18101-3 0  1170
2 52667  53.2149 294.8224 0001420  95.5371 247.0763 15.08857038    15
STARLINK-4067           
1 52668C 22053N   26117.53104167  .00001751  00000+0  10973-3 0  1171
2 52668  53.2151 294.8646 0001583 100.6827 152.8739 15.08859257    12
STARLINK-3972           
1 52669C 22053P   26117.53937500 -.00001653  00000+0 -10362-3 0  1172
2 52669  53.2156 294.8261 0001351  98.4764 300.3123 15.08856074    19
STARLINK-4075           
1 52670C 22053Q   26117.55048611 -.00006009  00000+0 -37667-3 0  1179
2 52670  53.2153 294.8449 0001237  97.2930 241.9343 15.08852295    16
STARLINK-4071           
1 52671C 22053R   26117.53173611  .00002019  00000+0  12660-3 0  1178
2 52671  53.2158 294.8597 0001300  96.0029 281.3697 15.08840269    11
STARLINK-4073           
1 52672C 22053S   26117.52131944  .00004334  00000+0  27170-3 0  1175
2 52672  53.2151 294.9072 0001292  95.5785 165.1666 15.08844643    12
STARLINK-3976           
1 52673C 22053T   26117.55326389 -.00006675  00000+0 -41845-3 0  1175
2 52673  53.2163 294.7626 0001305  95.9755  78.2816 15.08853141    19
STARLINK-3936           
1 52674C 22053U   26117.50673611  .00095172  00000+0  40117-2 0  1172
2 52674  53.2167 293.3711 0001337 110.8137 202.4505 15.22753039    17
STARLINK-3934           
1 52675C 22053V   26117.52965278 -.00010660  00000+0 -66835-3 0  1175
2 52675  53.2148 284.8705 0001406  96.5790 324.4542 15.08850903    15
STARLINK-4006           
1 52676C 22053W   26117.52131944  .00007510  00000+0  47066-3 0  1174
2 52676  53.2163 294.9066 0001422  81.8682 258.8200 15.08854415    13
STARLINK-4074           
1 52678C 22053Y   26117.53590278 -.00009251  00000+0 -58002-3 0  1174
2 52678  53.2150 284.9472 0001410  93.0212 301.9188 15.08846949    10
STARLINK-4031           
1 52679C 22053Z   26117.54284722 -.00012749  00000+0 -79939-3 0  1178
2 52679  53.2157 284.8113 0001381 104.2080 128.4831 15.08848127    11
STARLINK-3774           
1 52680C 22053AA  26117.53104167 -.00008105  00000+0 -50816-3 0  1177
2 52680  53.2158 284.6295 0001567  96.5608 112.1812 15.08849080    16
